{
  "type": "FeatureCollection",
  "features": [
    {
      "type": "Feature",
      "properties": {
        "norad_id": 27954,
        "name": "GALAXY 13 (HORIZONS-1)",
        "group": "intelsat",
        "lat": -0.42207316605164497,
        "lon": 57.13112773718307,
        "alt_km": 35794.591760013136,
        "timestamp": "2025-12-03T08:58:45.666616+00:00",
        "meta_object_name": "GALAXY 13 (HORIZONS-1)",
        "meta_object_id": "2003-044A",
        "meta_epoch": "2025-12-03T02:46:08.621184",
        "meta_mean_motion": 1.00272394,
        "meta_eccentricity": 0.0002072,
        "meta_inclination": 0.9107,
        "meta_ra_of_asc_node": 86.5888,
        "meta_arg_of_pericenter": 160.3308,
        "meta_mean_anomaly": 76.8191,
        "meta_ephemeris_type": 0,
        "meta_classification_type": "U",
        "meta_norad_cat_id": 27954,
        "meta_element_set_no": 999,
        "meta_rev_at_epoch": 4460,
        "meta_bstar": 0,
        "meta_mean_motion_dot": 1.52e-06,
        "meta_mean_motion_ddot": 0,
        "tle_line1": "1 27954U 03044A   25337.11537756  .00000152  00000+0  00000+0 0  9999",
        "tle_line2": "2 27954   0.9107  86.5888 0002072 160.3308  76.8191  1.00272394 44605"
      },
      "geometry": {
        "type": "Point",
        "coordinates": [
          57.13112773718307,
          -0.42207316605164497
        ]
      }
    },
    {
      "type": "Feature",
      "properties": {
        "norad_id": 28358,
        "name": "INTELSAT 10-02",
        "group": "intelsat",
        "lat": -0.0037514679780050603,
        "lon": -153.87543380332556,
        "alt_km": 35784.79968628252,
        "timestamp": "2025-12-03T08:58:45.666628+00:00",
        "meta_object_name": "INTELSAT 10-02",
        "meta_object_id": "2004-022A",
        "meta_epoch": "2025-12-02T21:31:38.613216",
        "meta_mean_motion": 1.00271044,
        "meta_eccentricity": 0.0001134,
        "meta_inclination": 0.0398,
        "meta_ra_of_asc_node": 86.235,
        "meta_arg_of_pericenter": 192.2439,
        "meta_mean_anomaly": 115.4352,
        "meta_ephemeris_type": 0,
        "meta_classification_type": "U",
        "meta_norad_cat_id": 28358,
        "meta_element_set_no": 999,
        "meta_rev_at_epoch": 7858,
        "meta_bstar": 0,
        "meta_mean_motion_dot": 9e-08,
        "meta_mean_motion_ddot": 0,
        "tle_line1": "1 28358U 04022A   25336.89697469  .00000009  00000+0  00000+0 0  9998",
        "tle_line2": "2 28358   0.0398  86.2350 0001134 192.2439 115.4352  1.00271044 78589"
      },
      "geometry": {
        "type": "Point",
        "coordinates": [
          -153.87543380332556,
          -0.0037514679780050603
        ]
      }
    },
    {
      "type": "Feature",
      "properties": {
        "norad_id": 28626,
        "name": "XM-3 (RHYTHM)",
        "group": "intelsat",
        "lat": -0.1203767788649994,
        "lon": 5.873039671032282,
        "alt_km": 36155.87291103726,
        "timestamp": "2025-12-03T08:58:45.666642+00:00",
        "meta_object_name": "XM-3 (RHYTHM)",
        "meta_object_id": "2005-008A",
        "meta_epoch": "2025-12-02T19:08:10.315104",
        "meta_mean_motion": 0.98955046,
        "meta_eccentricity": 8.64e-05,
        "meta_inclination": 0.1467,
        "meta_ra_of_asc_node": 80.743,
        "meta_arg_of_pericenter": 265.9206,
        "meta_mean_anomaly": 173.7506,
        "meta_ephemeris_type": 0,
        "meta_classification_type": "U",
        "meta_norad_cat_id": 28626,
        "meta_element_set_no": 999,
        "meta_rev_at_epoch": 4065,
        "meta_bstar": 0,
        "meta_mean_motion_dot": -2.32e-06,
        "meta_mean_motion_ddot": 0,
        "tle_line1": "1 28626U 05008A   25336.79734161 -.00000232  00000+0  00000+0 0  9990",
        "tle_line2": "2 28626   0.1467  80.7430 0000864 265.9206 173.7506  0.98955046 40654"
      },
      "geometry": {
        "type": "Point",
        "coordinates": [
          5.873039671032282,
          -0.1203767788649994
        ]
      }
    },
    {
      "type": "Feature",
      "properties": {
        "norad_id": 28659,
        "name": "DIRECTV 8",
        "group": "intelsat",
        "lat": 0.027016521322426552,
        "lon": 88.08660728398766,
        "alt_km": 35800.03747362119,
        "timestamp": "2025-12-03T08:58:45.666668+00:00",
        "meta_object_name": "DIRECTV 8",
        "meta_object_id": "2005-019A",
        "meta_epoch": "2025-12-03T04:16:38.815392",
        "meta_mean_motion": 1.00271343,
        "meta_eccentricity": 0.0003298,
        "meta_inclination": 0.0151,
        "meta_ra_of_asc_node": 306.8125,
        "meta_arg_of_pericenter": 313.5862,
        "meta_mean_anomaly": 116.9976,
        "meta_ephemeris_type": 0,
        "meta_classification_type": "U",
        "meta_norad_cat_id": 28659,
        "meta_element_set_no": 999,
        "meta_rev_at_epoch": 7510,
        "meta_bstar": 0,
        "meta_mean_motion_dot": 2e-07,
        "meta_mean_motion_ddot": 0,
        "tle_line1": "1 28659U 05019A   25337.17822703  .00000020  00000+0  00000+0 0  9995",
        "tle_line2": "2 28659   0.0151 306.8125 0003298 313.5862 116.9976  1.00271343 75107"
      },
      "geometry": {
        "type": "Point",
        "coordinates": [
          88.08660728398766,
          0.027016521322426552
        ]
      }
    },
    {
      "type": "Feature",
      "properties": {
        "norad_id": 28702,
        "name": "GALAXY 28 (G-28)",
        "group": "intelsat",
        "lat": 1.6930788033450295,
        "lon": 118.37590801271782,
        "alt_km": 35793.3015129442,
        "timestamp": "2025-12-03T08:58:45.666683+00:00",
        "meta_object_name": "GALAXY 28 (G-28)",
        "meta_object_id": "2005-022A",
        "meta_epoch": "2025-12-03T03:03:36.946080",
        "meta_mean_motion": 1.00272226,
        "meta_eccentricity": 0.0002659,
        "meta_inclination": 2.7941,
        "meta_ra_of_asc_node": 81.3919,
        "meta_arg_of_pericenter": 169.0679,
        "meta_mean_anomaly": 138.9637,
        "meta_ephemeris_type": 0,
        "meta_classification_type": "U",
        "meta_norad_cat_id": 28702,
        "meta_element_set_no": 999,
        "meta_rev_at_epoch": 5000,
        "meta_bstar": 0,
        "meta_mean_motion_dot": -1.69e-06,
        "meta_mean_motion_ddot": 0,
        "tle_line1": "1 28702U 05022A   25337.12751095 -.00000169  00000+0  00000+0 0  9993",
        "tle_line2": "2 28702   2.7941  81.3919 0002659 169.0679 138.9637  1.00272226 50009"
      },
      "geometry": {
        "type": "Point",
        "coordinates": [
          118.37590801271782,
          1.6930788033450295
        ]
      }
    },
    {
      "type": "Feature",
      "properties": {
        "norad_id": 29236,
        "name": "GALAXY 16 (G-16)",
        "group": "intelsat",
        "lat": -0.006124527914722047,
        "lon": 108.10040789010094,
        "alt_km": 35796.76716511814,
        "timestamp": "2025-12-03T08:58:45.666696+00:00",
        "meta_object_name": "GALAXY 16 (G-16)",
        "meta_object_id": "2006-023A",
        "meta_epoch": "2025-12-03T04:00:38.641824",
        "meta_mean_motion": 1.00270158,
        "meta_eccentricity": 0.0002901,
        "meta_inclination": 0.0255,
        "meta_ra_of_asc_node": 219.5715,
        "meta_arg_of_pericenter": 34.8297,
        "meta_mean_anomaly": 139.0115,
        "meta_ephemeris_type": 0,
        "meta_classification_type": "U",
        "meta_norad_cat_id": 29236,
        "meta_element_set_no": 999,
        "meta_rev_at_epoch": 7100,
        "meta_bstar": 0,
        "meta_mean_motion_dot": -1.08e-06,
        "meta_mean_motion_ddot": 0,
        "tle_line1": "1 29236U 06023A   25337.16711391 -.00000108  00000+0  00000+0 0  9990",
        "tle_line2": "2 29236   0.0255 219.5715 0002901  34.8297 139.0115  1.00270158 71003"
      },
      "geometry": {
        "type": "Point",
        "coordinates": [
          108.10040789010094,
          -0.006124527914722047
        ]
      }
    },
    {
      "type": "Feature",
      "properties": {
        "norad_id": 29494,
        "name": "DIRECTV 9S",
        "group": "intelsat",
        "lat": 0.7503336897807147,
        "lon": 105.895519159939,
        "alt_km": 35797.43550508236,
        "timestamp": "2025-12-03T08:58:45.666708+00:00",
        "meta_object_name": "DIRECTV 9S",
        "meta_object_id": "2006-043A",
        "meta_epoch": "2025-12-03T04:00:38.641824",
        "meta_mean_motion": 1.00270605,
        "meta_eccentricity": 0.0003194,
        "meta_inclination": 1.9135,
        "meta_ra_of_asc_node": 83.3116,
        "meta_arg_of_pericenter": 167.8035,
        "meta_mean_anomaly": 140.1037,
        "meta_ephemeris_type": 0,
        "meta_classification_type": "U",
        "meta_norad_cat_id": 29494,
        "meta_element_set_no": 999,
        "meta_rev_at_epoch": 4941,
        "meta_bstar": 0,
        "meta_mean_motion_dot": -9.5e-07,
        "meta_mean_motion_ddot": 0,
        "tle_line1": "1 29494U 06043A   25337.16711391 -.00000095  00000+0  00000+0 0  9993",
        "tle_line2": "2 29494   1.9135  83.3116 0003194 167.8035 140.1037  1.00270605 49413"
      },
      "geometry": {
        "type": "Point",
        "coordinates": [
          105.895519159939,
          0.7503336897807147
        ]
      }
    }
  ]
}